OBJECT_NAME,OBJECT_ID,EPOCH,MEAN_MOTION,ECCENTRICITY,INCLINATION,RA_OF_ASC_NODE,ARG_OF_PERICENTER,MEAN_ANOMALY,EPHEMERIS_TYPE,CLASSIFICATION_TYPE,NORAD_CAT_ID,ELEMENT_SET_NO,REV_AT_EPOCH,BSTAR,MEAN_MOTION_DOT,MEAN_MOTION_DDOT
CHUANGXIN 1-02 (CX-1-02),2008-056B,2026-05-14T07:05:41.697600,14.30145550,.00131486,98.6163,160.8972,237.5043,122.4869,0,U,33434,999,91377,.5320766E-5,-.3E-6,0
KKS-1 (KISEKI),2009-002H,2026-05-14T06:03:40.040928,14.83031484,.00089842,98.1195,56.1593,47.6092,312.5880,0,U,33499,999,93116,.1067463E-3,.813E-5,0
UK-DMC 2,2009-041C,2026-05-14T07:55:03.194976,14.75970737,.00016528,97.8778,270.1346,80.9579,279.1818,0,U,35683,999,90157,.19756722E-4,.87E-6,0
OCEANSAT-2,2009-051A,2026-05-14T05:50:54.681216,13.99648652,.00150872,98.2299,124.4868,337.4076,22.6425,0,U,35931,999,87458,.9576544E-4,.102E-5,0
SWISSCUBE,2009-051B,2026-05-14T05:35:14.374464,14.62412477,.00061096,98.4058,41.5281,329.7400,30.3447,0,U,35932,999,88419,.13431828E-3,.63E-5,0
BEESAT-1,2009-051C,2026-05-14T07:02:08.845152,14.61662089,.00049576,98.3987,41.2955,348.0397,12.0685,0,U,35933,999,88423,.1177968E-3,.537E-5,0
ITUPSAT1,2009-051E,2026-05-14T06:06:23.176224,14.60386734,.00073557,98.4073,40.4839,355.0822,5.0304,0,U,35935,999,88378,.11030892E-3,.485E-5,0
PROBA-2,2009-059B,2026-05-14T06:21:52.682112,14.54847395,.00138729,98.2449,318.0891,30.7199,329.4807,0,U,36037,999,87659,.36981015E-4,.114E-5,0
YAOGAN-7,2009-069A,2026-05-14T05:43:31.329984,14.77974067,.00253225,98.0113,20.3088,145.9987,214.2853,0,U,36110,999,88461,.47737883E-4,.293E-5,0
XIWANG-1 (HOPE-1),2009-072B,2026-05-14T06:32:04.684416,13.16438338,.00070991,100.4002,88.6493,315.8701,44.1844,0,U,36122,999,78854,-.37571734E-3,-.188E-5,0
COSMOS 2463,2010-017A,2026-05-14T08:14:55.462272,13.71663316,.00352719,82.9589,274.5733,222.3100,199.4791,0,U,36519,999,80329,.14473966E-4,.28E-6,0
CARTOSAT-2B,2010-035A,2026-05-14T07:13:46.340256,14.78616467,.00102396,97.9983,185.0628,305.0068,55.0182,0,U,36795,999,85484,.65983422E-4,.431E-5,0
TISAT 1,2010-035E,2026-05-14T06:16:46.322400,15.30369549,.00033827,98.0692,77.8426,50.2995,309.8541,0,U,36799,999,86251,.46422471E-3,.13561E-3,0
YAOGAN-10,2010-038A,2026-05-14T08:03:38.818944,14.85239085,.00015283,97.9007,158.0101,91.4034,359.3879,0,U,36834,999,85218,.72601131E-4,.569E-5,0
SHIJIAN-6 04B (SJ-6 04B),2010-051B,2026-05-14T06:03:36.420768,14.99259144,.00125076,97.8730,139.3184,61.5628,298.6854,0,U,37180,999,85059,-.19472437E-4,-.299E-5,0
FENGYUN 3B,2010-059A,2026-05-14T07:15:17.043840,14.14832229,.0020953,98.9651,180.1687,283.6786,210.0782,0,U,37214,999,80263,-.19809441E-4,-.84E-6,0
O/OREOS (USA 219),2010-062C,2026-05-14T04:10:10.635744,14.93595765,.00129929,71.9682,157.3758,137.3443,222.8739,0,U,37224,999,11156,.12088176E-3,.1214E-4,0
APRIZESAT 6,2011-044F,2026-05-14T06:48:57.002976,14.76867099,.00427474,98.2384,44.0893,192.6937,295.0355,0,U,37793,999,79214,.5979196E-4,.37E-5,0
