{"fetched_at":"2026-05-15T02:58:15Z","count":8847,"tles":[{"name":"BEESAT-1","line1":"1 35933U 09051C   26134.29315793  .00000537  00000+0  11780-3 0  9997","line2":"2 35933  98.3987  41.2955 0004957 348.0397  12.0685 14.61662089884234","category":"Other"},{"name":"YAOGAN-10","line1":"1 36834U 10038A   26134.33586596  .00000569  00000+0  72601-4 0  9996","line2":"2 36834  97.9007 158.0101 0001528  91.4034 359.3879 14.85239085852184","category":"Other"},{"name":"SWISSCUBE","line1":"1 35932U 09051B   26134.23280526  .00000630  00000+0  13432-3 0  9995","line2":"2 35932  98.4058  41.5281 0006109 329.7400  30.3447 14.62412477884199","category":"ISS"},{"name":"KKS-1 (KISEKI)","line1":"1 33499U 09002H   26134.25254677  .00000813  00000+0  10675-3 0  9996","line2":"2 33499  98.1195  56.1593 0008984  47.6092 312.5880 14.83031484931162","category":"Other"},{"name":"YAOGAN-7","line1":"1 36110U 09069A   26134.23855706  .00000293  00000+0  47738-4 0  9993","line2":"2 36110  98.0113  20.3088 0025322 145.9987 214.2853 14.77974067884617","category":"Other"},{"name":"FENGYUN 3B","line1":"1 37214U 10059A   26134.30228060 -.00000084  00000+0 -19809-4 0  9993","line2":"2 37214  98.9651 180.1687 0020953 283.6786 210.0782 14.14832229802632","category":"Weather"},{"name":"OCEANSAT-2","line1":"1 35931U 09051A   26134.24368844  .00000102  00000+0  95765-4 0  9999","line2":"2 35931  98.2299 124.4868 0015087 337.4076  22.6425 13.99648652874582","category":"Other"},{"name":"TISAT 1","line1":"1 36799U 10035E   26134.26164725  .00013561  00000+0  46422-3 0  9998","line2":"2 36799  98.0692  77.8426 0003382  50.2995 309.8541 15.30369549862517","category":"Other"},{"name":"PROBA-2","line1":"1 36037U 09059B   26134.26519308  .00000114  00000+0  36981-4 0  9998","line2":"2 36037  98.2449 318.0891 0013872  30.7199 329.4807 14.54847395876595","category":"Other"},{"name":"O/OREOS (USA 219)","line1":"1 37224U 10062C   26134.17373421  .00001214  00000+0  12088-3 0  9990","line2":"2 37224  71.9682 157.3758 0012992 137.3443 222.8739 14.93595765111568","category":"Military"},{"name":"ITUPSAT1","line1":"1 35935U 09051E   26134.25443491  .00000485  00000+0  11031-3 0  9993","line2":"2 35935  98.4073  40.4839 0007355 355.0822   5.0304 14.60386734883789","category":"Other"},{"name":"UK-DMC 2","line1":"1 35683U 09041C   26134.32989809  .00000087  00000+0  19757-4 0  9990","line2":"2 35683  97.8778 270.1346 0001652  80.9579 279.1818 14.75970737901576","category":"Other"},{"name":"XIWANG-1 (HOPE-1)","line1":"1 36122U 09072B   26134.27227644 -.00000188  00000+0 -37572-3 0  9997","line2":"2 36122 100.4002  88.6493 0007099 315.8701  44.1844 13.16438338788548","category":"Other"},{"name":"APRIZESAT 6","line1":"1 37793U 11044F   26134.28399309  .00000370  00000+0  59792-4 0  9993","line2":"2 37793  98.2384  44.0893 0042747 192.6937 295.0355 14.76867099792143","category":"Other"},{"name":"SHIJIAN-6 04B (SJ-6 04B)","line1":"1 37180U 10051B   26134.25250487 -.00000299  00000+0 -19472-4 0  9993","line2":"2 37180  97.8730 139.3184 0012507  61.5628 298.6854 14.99259144850594","category":"Other"},{"name":"COSMOS 2463","line1":"1 36519U 10017A   26134.34369748  .00000028  00000+0  14474-4 0  9996","line2":"2 36519  82.9589 274.5733 0035271 222.3100 199.4791 13.71663316803295","category":"Other"},{"name":"CARTOSAT-2B","line1":"1 36795U 10035A   26134.30123079  .00000431  00000+0  65983-4 0  9992","line2":"2 36795  97.9983 185.0628 0010239 305.0068  55.0182 14.78616467854844","category":"Other"},{"name":"CHUANGXIN 1-02 (CX-1-02)","line1":"1 33434U 08056B   26134.29562150 -.00000030  00000+0  53208-5 0  9998","line2":"2 33434  98.6163 160.8972 0013148 237.5043 122.4869 14.30145550913773","category":"Other"}]}